[{"OBJECT_NAME":"FALCONSAT-10","OBJECT_ID":"2023-174AM","EPOCH":"2026-03-09T16:51:34.085376","MEAN_MOTION":15.26670596,"ECCENTRICITY":0.00089318,"INCLINATION":97.3865,"RA_OF_ASC_NODE":145.7938,"ARG_OF_PERICENTER":169.5942,"MEAN_ANOMALY":190.5483,"EPHEMERIS_TYPE":0,"CLASSIFICATION_TYPE":"U","NORAD_CAT_ID":58291,"ELEMENT_SET_NO":999,"REV_AT_EPOCH":12958,"BSTAR":0.00025968794,"MEAN_MOTION_DOT":6.748e-5,"MEAN_MOTION_DDOT":0},{"OBJECT_NAME":"STARLINK-31947","OBJECT_ID":"2024-097A","EPOCH":"2026-03-08T23:57:43.780896","MEAN_MOTION":15.27562328,"ECCENTRICITY":0.00010676,"INCLINATION":42.9964,"RA_OF_ASC_NODE":278.0507,"ARG_OF_PERICENTER":272.1636,"MEAN_ANOMALY":87.9094,"EPHEMERIS_TYPE":0,"CLASSIFICATION_TYPE":"U","NORAD_CAT_ID":59835,"ELEMENT_SET_NO":999,"REV_AT_EPOCH":10181,"BSTAR":-1.4865394e-5,"MEAN_MOTION_DOT":-6.71e-6,"MEAN_MOTION_DDOT":0}]
